CCSDS_OMM_VERS = 2.0
CREATION_DATE  = 
ORIGINATOR     = 

OBJECT_NAME    = 1998-067XK
OBJECT_ID      = 1998-067XK
CENTER_NAME    = EARTH
REF_FRAME      = TEME
TIME_SYSTEM    = UTC
MEAN_ELEMENT_THEORY = SGP/SGP4

EPOCH          = 2026-01-23T17:25:24.599424
MEAN_MOTION    = 15.76997602
ECCENTRICITY   = .00043184
INCLINATION    = 51.6250
RA_OF_ASC_NODE = 282.6394
ARG_OF_PERICENTER = 136.6074
MEAN_ANOMALY   = 223.5267

EPHEMERIS_TYPE = 0
CLASSIFICATION_TYPE = U
NORAD_CAT_ID   = 65731
ELEMENT_SET_NO = 999
REV_AT_EPOCH   = 1974
BSTAR          = .13084548E-2
MEAN_MOTION_DOT = .222266E-2
MEAN_MOTION_DDOT = 0

CCSDS_OMM_VERS = 2.0
CREATION_DATE  = 
ORIGINATOR     = 

OBJECT_NAME    = RSP-03
OBJECT_ID      = 1998-067XL
CENTER_NAME    = EARTH
REF_FRAME      = TEME
TIME_SYSTEM    = UTC
MEAN_ELEMENT_THEORY = SGP/SGP4

EPOCH          = 2026-01-24T10:03:53.137728
MEAN_MOTION    = 15.86011293
ECCENTRICITY   = .0005436
INCLINATION    = 51.6214
RA_OF_ASC_NODE = 276.7255
ARG_OF_PERICENTER = 158.1520
MEAN_ANOMALY   = 201.9716

EPHEMERIS_TYPE = 0
CLASSIFICATION_TYPE = U
NORAD_CAT_ID   = 65732
ELEMENT_SET_NO = 999
REV_AT_EPOCH   = 1989
BSTAR          = .1592E-2
MEAN_MOTION_DOT = .420747E-2
MEAN_MOTION_DDOT = 0

CCSDS_OMM_VERS = 2.0
CREATION_DATE  = 
ORIGINATOR     = 

OBJECT_NAME    = YOTSUBA-KULOVER
OBJECT_ID      = 1998-067XN
CENTER_NAME    = EARTH
REF_FRAME      = TEME
TIME_SYSTEM    = UTC
MEAN_ELEMENT_THEORY = SGP/SGP4

EPOCH          = 2026-01-23T20:27:21.330144
MEAN_MOTION    = 15.66871150
ECCENTRICITY   = .00043723
INCLINATION    = 51.6268
RA_OF_ASC_NODE = 287.2540
ARG_OF_PERICENTER = 153.4793
MEAN_ANOMALY   = 206.6427

EPHEMERIS_TYPE = 0
CLASSIFICATION_TYPE = U
NORAD_CAT_ID   = 65941
ELEMENT_SET_NO = 999
REV_AT_EPOCH   = 1644
BSTAR          = .11794124E-2
MEAN_MOTION_DOT = .128879E-2
MEAN_MOTION_DDOT = 0

CCSDS_OMM_VERS = 2.0
CREATION_DATE  = 
ORIGINATOR     = 

OBJECT_NAME    = BOTAN
OBJECT_ID      = 1998-067XP
CENTER_NAME    = EARTH
REF_FRAME      = TEME
TIME_SYSTEM    = UTC
MEAN_ELEMENT_THEORY = SGP/SGP4

EPOCH          = 2026-01-23T18:32:57.422112
MEAN_MOTION    = 15.75484980
ECCENTRICITY   = .00052865
INCLINATION    = 51.6232
RA_OF_ASC_NODE = 285.2024
ARG_OF_PERICENTER = 160.5052
MEAN_ANOMALY   = 199.6150

EPHEMERIS_TYPE = 0
CLASSIFICATION_TYPE = U
NORAD_CAT_ID   = 65942
ELEMENT_SET_NO = 999
REV_AT_EPOCH   = 1646
BSTAR          = .16387227E-2
MEAN_MOTION_DOT = .261853E-2
MEAN_MOTION_DDOT = 0

CCSDS_OMM_VERS = 2.0
CREATION_DATE  = 
ORIGINATOR     = 

OBJECT_NAME    = E-KAGAKU-1
OBJECT_ID      = 1998-067XQ
CENTER_NAME    = EARTH
REF_FRAME      = TEME
TIME_SYSTEM    = UTC
MEAN_ELEMENT_THEORY = SGP/SGP4

EPOCH          = 2026-01-23T00:33:24.384960
MEAN_MOTION    = 15.66627263
ECCENTRICITY   = .00030601
INCLINATION    = 51.6284
RA_OF_ASC_NODE = 291.4753
ARG_OF_PERICENTER = 156.2868
MEAN_ANOMALY   = 203.8269

EPHEMERIS_TYPE = 0
CLASSIFICATION_TYPE = U
NORAD_CAT_ID   = 65943
ELEMENT_SET_NO = 999
REV_AT_EPOCH   = 1631
BSTAR          = .11672068E-2
MEAN_MOTION_DOT = .126218E-2
MEAN_MOTION_DDOT = 0

CCSDS_OMM_VERS = 2.0
CREATION_DATE  = 
ORIGINATOR     = 

OBJECT_NAME    = HRC MONOBLOCK CAMERA
OBJECT_ID      = 1998-067XR
CENTER_NAME    = EARTH
REF_FRAME      = TEME
TIME_SYSTEM    = UTC
MEAN_ELEMENT_THEORY = SGP/SGP4

EPOCH          = 2026-01-23T18:57:13.484160
MEAN_MOTION    = 15.57560459
ECCENTRICITY   = .00007643
INCLINATION    = 51.6293
RA_OF_ASC_NODE = 291.3391
ARG_OF_PERICENTER = 30.7029
MEAN_ANOMALY   = 329.4008

EPHEMERIS_TYPE = 0
CLASSIFICATION_TYPE = U
NORAD_CAT_ID   = 66052
ELEMENT_SET_NO = 999
REV_AT_EPOCH   = 1538
BSTAR          = .7590078E-3
MEAN_MOTION_DOT = .56951E-3
MEAN_MOTION_DDOT = 0

CCSDS_OMM_VERS = 2.0
CREATION_DATE  = 
ORIGINATOR     = 

OBJECT_NAME    = HTV-X1
OBJECT_ID      = 2025-241A
CENTER_NAME    = EARTH
REF_FRAME      = TEME
TIME_SYSTEM    = UTC
MEAN_ELEMENT_THEORY = SGP/SGP4

EPOCH          = 2026-01-23T17:19:58.588032
MEAN_MOTION    = 15.49596283
ECCENTRICITY   = .00077762
INCLINATION    = 51.6325
RA_OF_ASC_NODE = 294.6353
ARG_OF_PERICENTER = 51.0046
MEAN_ANOMALY   = 309.1634

EPHEMERIS_TYPE = 0
CLASSIFICATION_TYPE = U
NORAD_CAT_ID   = 66174
ELEMENT_SET_NO = 999
REV_AT_EPOCH   = 51
BSTAR          = .30359733E-3
MEAN_MOTION_DOT = .16677E-3
MEAN_MOTION_DDOT = 0

CCSDS_OMM_VERS = 2.0
CREATION_DATE  = 
ORIGINATOR     = 

OBJECT_NAME    = SZ-21 MODULE
OBJECT_ID      = 2025-246C
CENTER_NAME    = EARTH
REF_FRAME      = TEME
TIME_SYSTEM    = UTC
MEAN_ELEMENT_THEORY = SGP/SGP4

EPOCH          = 2026-01-24T12:29:07.801152
MEAN_MOTION    = 15.65205841
ECCENTRICITY   = .0003207
INCLINATION    = 41.4751
RA_OF_ASC_NODE = 114.5700
ARG_OF_PERICENTER = 232.0360
MEAN_ANOMALY   = 128.0191

EPHEMERIS_TYPE = 0
CLASSIFICATION_TYPE = U
NORAD_CAT_ID   = 66515
ELEMENT_SET_NO = 999
REV_AT_EPOCH   = 1114
BSTAR          = .42228E-3
MEAN_MOTION_DOT = .42938E-3
MEAN_MOTION_DDOT = 0

CCSDS_OMM_VERS = 2.0
CREATION_DATE  = 
ORIGINATOR     = 

OBJECT_NAME    = SHENZHOU-22
OBJECT_ID      = 2025-272A
CENTER_NAME    = EARTH
REF_FRAME      = TEME
TIME_SYSTEM    = UTC
MEAN_ELEMENT_THEORY = SGP/SGP4

EPOCH          = 2026-01-24T06:51:31.034304
MEAN_MOTION    = 15.60992638
ECCENTRICITY   = .00100996
INCLINATION    = 41.4667
RA_OF_ASC_NODE = 118.0663
ARG_OF_PERICENTER = 350.3753
MEAN_ANOMALY   = 9.6891

EPHEMERIS_TYPE = 0
CLASSIFICATION_TYPE = U
NORAD_CAT_ID   = 66645
ELEMENT_SET_NO = 999
REV_AT_EPOCH   = 26764
BSTAR          = .3484028E-3
MEAN_MOTION_DOT = .29945E-3
MEAN_MOTION_DDOT = 0

CCSDS_OMM_VERS = 2.0
CREATION_DATE  = 
ORIGINATOR     = 

OBJECT_NAME    = SOYUZ-MS 28
OBJECT_ID      = 2025-275A
CENTER_NAME    = EARTH
REF_FRAME      = TEME
TIME_SYSTEM    = UTC
MEAN_ELEMENT_THEORY = SGP/SGP4

EPOCH          = 2026-01-23T17:19:58.588032
MEAN_MOTION    = 15.49596283
ECCENTRICITY   = .00077762
INCLINATION    = 51.6325
RA_OF_ASC_NODE = 294.6353
ARG_OF_PERICENTER = 51.0046
MEAN_ANOMALY   = 309.1634

EPHEMERIS_TYPE = 0
CLASSIFICATION_TYPE = U
NORAD_CAT_ID   = 66664
ELEMENT_SET_NO = 999
REV_AT_EPOCH   = 128
BSTAR          = .30359733E-3
MEAN_MOTION_DOT = .16677E-3
MEAN_MOTION_DDOT = 0

CCSDS_OMM_VERS = 2.0
CREATION_DATE  = 
ORIGINATOR     = 

OBJECT_NAME    = DUPLEX
OBJECT_ID      = 1998-067XS
CENTER_NAME    = EARTH
REF_FRAME      = TEME
TIME_SYSTEM    = UTC
MEAN_ELEMENT_THEORY = SGP/SGP4

EPOCH          = 2026-01-23T11:02:50.692416
MEAN_MOTION    = 15.53036970
ECCENTRICITY   = .00019585
INCLINATION    = 51.6309
RA_OF_ASC_NODE = 295.1385
ARG_OF_PERICENTER = 49.0886
MEAN_ANOMALY   = 311.0274

EPHEMERIS_TYPE = 0
CLASSIFICATION_TYPE = U
NORAD_CAT_ID   = 66906
ELEMENT_SET_NO = 999
REV_AT_EPOCH   = 809
BSTAR          = .54404294E-3
MEAN_MOTION_DOT = .3429E-3
MEAN_MOTION_DDOT = 0

CCSDS_OMM_VERS = 2.0
CREATION_DATE  = 
ORIGINATOR     = 

OBJECT_NAME    = 1998-067XT
OBJECT_ID      = 1998-067XT
CENTER_NAME    = EARTH
REF_FRAME      = TEME
TIME_SYSTEM    = UTC
MEAN_ELEMENT_THEORY = SGP/SGP4

EPOCH          = 2026-01-23T18:28:44.188032
MEAN_MOTION    = 15.58126078
ECCENTRICITY   = .00032936
INCLINATION    = 51.6287
RA_OF_ASC_NODE = 292.7063
ARG_OF_PERICENTER = 112.4902
MEAN_ANOMALY   = 247.6439

EPHEMERIS_TYPE = 0
CLASSIFICATION_TYPE = U
NORAD_CAT_ID   = 66907
ELEMENT_SET_NO = 999
REV_AT_EPOCH   = 815
BSTAR          = .15328326E-2
MEAN_MOTION_DOT = .11895E-2
MEAN_MOTION_DDOT = 0

